STARLINK-2471           
1 48129U 21027AP  26068.52085448  .00005194  00000+0  18751-3 0  9997
2 48129  53.1624 166.3555 0001298  99.7429 260.3719 15.30176239272486
HAWK-11C                
1 62381U 24247E   26068.51221537  .00009223  00000+0  33290-3 0  9992
2 62381  45.0045 114.8762 0005900 329.7040  30.3502 15.28848020 67743
